OCEANSAT-2              
1 35931U 09051A   26197.22290524 -.00000058  00000+0 -14117-4 0  9999
2 35931  98.2320 181.1754 0017404 150.5263 209.6889 13.99655952883399
WORLDVIEW-2 (WV-2)      
1 35946U 09055A   26197.18110515  .00000044  00000+0  29152-4 0  9993
2 35946  98.4756 270.2360 0005351 127.4641 232.7033 14.37907087879816
SMOS                    
1 36036U 09059A   26197.09987058  .00000118  00000+0  51707-4 0  9995
2 36036  98.4429  24.0111 0001165  97.2447 262.8874 14.39736354877612
YAOGAN-7                
1 36110U 09069A   26197.13155845  .00000192  00000+0  33865-4 0  9992
2 36110  98.0031  82.8149 0023453 308.1841  51.7257 14.78036013893907
TANDEM-X                
1 36605U 10030A   26188.47915494  .00000386  00000+0  21566-4 0  9992
2 36605  97.4457 195.8973 0001887  94.3019 265.8431 15.19154052889726
CARTOSAT-2B             
1 36795U 10035A   26197.16749730  .00000378  00000+0  58642-4 0  9997
2 36795  97.9938 247.5291 0012686  96.9973 263.2681 14.78651445864138
YAOGAN-10               
1 36834U 10038A   26197.18830196  .00001245  00000+0  15067-3 0  9990
2 36834  97.8966 220.3615 0001700  83.5383   7.3167 14.85433200861513
COSMO-SKYMED 4          
1 37216U 10060A   26197.13573036  .00000391  00000+0  55699-4 0  9999
2 37216  97.8886  20.3163 0001487  86.8479 273.2904 14.82149361848853
RESOURCESAT-2           
1 37387U 11015A   26197.15712600  .00000027  00000+0  32250-4 0  9997
2 37387  98.7632 264.3967 0011606 168.3897 191.7550 14.21599677790294
HAIYANG-2A              
1 37781U 11043A   26197.24093451  .00000132  00000+0  18916-3 0  9991
2 37781  99.3395 199.2509 0002315  20.6134 339.5107 13.73274327750647
RASAT                   
1 37791U 11044D   26197.20449902 -.00000014  00000+0  60502-5 0  9995
2 37791  98.0588 288.1586 0021940  99.7751 290.6522 14.68192520797444
SRMSAT                  
1 37841U 11058D   26197.19967284  .00000332  00000+0  36066-4 0  9991
2 37841  19.9709 243.8664 0011730 162.2183 240.1222 14.11581214761924
PLEIADES 1A             
1 38012U 11076F   26197.20561856  .00000062  00000+0  23267-4 0  9998
2 38012  98.1975 271.9170 0001647  79.4506 303.7595 14.58547013776225
ZIYUAN 1-02C (ZY 1-02C) 
1 38038U 11079A   26197.23116993  .00000205  00000+0  81605-4 0  9999
2 38038  98.4064 263.9311 0005643 211.3391 239.7075 14.38236326763386
ARIRANG-3 (KOMPSAT-3)   
1 38338U 12025B   26197.18388311  .00000179  00000+0  44718-4 0  9997
2 38338  98.1185 154.1465 0006165  36.2798 323.8821 14.62229456755586
EXACTVIEW-1 (ADS-1B)    
1 38709U 12039C   26196.88872129  .00000035  00000+0  34982-4 0  9998
2 38709  98.9806 314.9310 0011955  89.7225 270.5323 14.24992315726797
SPOT 6                  
1 38755U 12047A   26197.14799674 -.00000062  00000+0 -35697-5 0  9998
2 38755  98.2112 264.1156 0001105  86.8243 273.3083 14.58538611737270
PLEIADES 1B             
1 39019U 12068A   26197.16659568 -.00000077  00000+0 -66927-5 0  9990
2 39019  98.1945 271.8175 0001552  78.8169 281.3205 14.58534103725079
GOKTURK 2               
1 39030U 12073A   26197.17230513  .00000234  00000+0  41217-4 0  9992
2 39030  97.6803  33.1494 0000941  96.4116 263.7201 14.75568451728784
LANDSAT 8               
1 39084U 13008A   26196.86608935  .00000150  00000+0  43494-4 0  9998
2 39084  98.2290 266.6584 0001379  93.9816 266.1540 14.57094696702070
SARAL                   
1 39086U 13009A   26196.95043745  .00000014  00000+0  20973-4 0  9999
2 39086  98.5555  23.1540 0001742 164.8094 195.3143 14.32895907699723
GAOFEN-1                
1 39150U 13018A   26196.93207067 -.00000128  00000+0 -11017-4 0  9995
2 39150  97.9091 268.4139 0017083 168.7601 191.3993 14.76517962712481
VNREDSAT 1              
1 39160U 13021B   26197.18753729  .00000229  00000+0  51380-4 0  9996
2 39160  97.9065 249.4885 0001570  79.6005 280.5375 14.64884386704538
ARIRANG-5 (KOMPSAT-5)   
1 39227U 13042A   26197.16367024  .00000087  00000+0  10525-4 0  9998
2 39227  97.6201  23.4569 0005338  55.3020 304.8708 15.04494952708214
SKYSAT-A                
1 39418U 13066C   26197.09161265  .00001469  00000+0  86164-4 0  9994
2 39418  97.3803 245.5676 0020616 210.1814 149.8231 15.13117895692853
DUBAISAT-2              
1 39419U 13066D   26197.22273876  .00002369  00000+0  14800-3 0  9999
2 39419  97.4576 186.6121 0009230 299.4167  60.6141 15.10381126690778
GPM-CORE                
1 39574U 14009C   26197.14646796  .00003018  00000+0  68951-4 0  9994
2 39574  64.9691 211.0981 0010932 262.3716  97.6183 15.45049420702286
SENTINEL-1A             
1 39634U 14016A   26197.16747589  .00000087  00000+0  28085-4 0  9990
2 39634  98.1768 204.2772 0001424  86.2324 273.9039 14.59196272654246
KAZEOSAT 1              
1 39731U 14024A   26196.95541237 -.00000081  00000+0 -11747-4 0  9998
2 39731  98.3203 268.6850 0001225  82.1571 277.9758 14.42036823642706
ALOS-2                  
1 39766U 14029A   26197.22130074  .00000339  00000+0  52308-4 0  9997
2 39766  97.9235 293.9696 0001573  92.0748 268.0643 14.79467160655873
KAZEOSAT 2              
1 40010U 14033A   26197.19466895  .00000527  00000+0  66789-4 0  9992
2 40010  97.5389  35.2723 0007406 215.5676 144.5047 14.85502808653267
